GSAT0101 (PRN E11)      
1 37846U 11060A   24017.21114847 -.00000080  00000+0  00000+0 0  9995
2 37846  57.1240   5.6444 0003243 332.3011  27.6847  1.70475707 76215
GSAT0102 (PRN E12)      
1 37847U 11060B   24018.39275330 -.00000084  00000+0  00000+0 0  9995
2 37847  57.1248   5.6124 0005036 317.5805  93.5665  1.70475154 76112
GSAT0103 (PRN E19)      
1 38857U 12055A   24017.25032591 -.00000002  00000+0  00000+0 0  9996
2 38857  55.3402 125.7832 0003599 250.1971 109.7538  1.70473373 69970
GSAT0104 (PRN E20)      
1 38858U 12055B   24014.87326367  .00000009  00000+0  00000+0 0  9995
2 38858  55.3393 125.8502 0001499 202.3303 157.6504  1.70473605 69939
GSAT0201 (PRN E18)      
1 40128U 14050A   24018.16944284 -.00000102  00000+0  00000+0 0  9990
2 40128  49.8071 309.1288 1605699 145.4641 226.1206  1.85519428 61973
GSAT0202 (PRN E14)      
1 40129U 14050B   24015.19438120 -.00000075  00000+0  00000+0 0  9997
2 40129  49.8284 308.3224 1603933 146.1614 225.2208  1.85520040 64087
GSAT0203 (PRN E26)      
1 40544U 15017A   24018.16352045 -.00000084  00000+0  00000+0 0  9993
2 40544  56.9195   5.5730 0005416 273.9679  85.9730  1.70475738 54185
GSAT0204 (PRN E22)      
1 40545U 15017B   24016.07117766 -.00000077  00000+0  00000+0 0  9993
2 40545  56.9256   5.6448 0004975 262.7570  97.1898  1.70475350 17196
GSAT0205 (PRN E24)      
1 40889U 15045A   24018.18616406  .00000047  00000+0  00000+0 0  9990
2 40889  55.2902 245.9430 0006047  34.2044 325.9039  1.70473006 51998
GSAT0206 (PRN E30)      
1 40890U 15045B   24017.23364819  .00000044  00000+0  00000+0 0  9992
2 40890  55.2899 245.9648 0004319  36.3066 323.7927  1.70473126 52001
GSAT0209 (PRN E09)      
1 41174U 15079A   24017.40398910 -.00000004  00000+0  00000+0 0  9990
2 41174  55.3583 125.4870 0002525 308.8722  51.0950  1.70474737 49743
GSAT0208 (PRN E08)      
1 41175U 15079B   24017.62367043 -.00000006  00000+0  00000+0 0  9990
2 41175  55.3568 125.4789 0004081 291.9180  68.0278  1.70474174 50327
GSAT0211 (PRN E02)      
1 41549U 16030A   24015.98620147  .00000046  00000+0  00000+0 0  9990
2 41549  55.4376 245.9943 0004256  11.6001 348.4847  1.70473074 47616
GSAT0210 (PRN E01)      
1 41550U 16030B   24018.03723747  .00000047  00000+0  00000+0 0  9992
2 41550  55.4362 245.9386 0002073 348.1862  11.8783  1.70473438 47649
GSAT0207 (PRN E07)      
1 41859U 16069A   24017.11116047 -.00000002  00000+0  00000+0 0  9995
2 41859  55.0219 125.5338 0003065 286.3404  73.6160  1.70474456 44367
GSAT0212 (PRN E03)      
1 41860U 16069B   24014.03273339  .00000009  00000+0  00000+0 0  9999
2 41860  55.0184 125.6160 0001359 330.0863  29.8893  1.70474767 44567
GSAT0213 (PRN E04)      
1 41861U 16069C   24017.33279537 -.00000004  00000+0  00000+0 0  9998
2 41861  55.0218 125.5306 0003545 259.7520 100.1977  1.70473413 44487
GSAT0214 (PRN E05)      
1 41862U 16069D   24017.47946158 -.00000005  00000+0  00000+0 0  9995
2 41862  55.0205 125.5204 0002397 255.5205 104.4422  1.70474930 44611
GSAT0215 (PRN E21)      
1 43055U 17079A   24015.03583220  .00000050  00000+0  00000+0 0  9999
2 43055  55.4156 245.8444 0001613 348.5109  11.5664  1.70473904 37915
GSAT0216 (PRN E25)      
1 43056U 17079B   24018.26056725  .00000048  00000+0  00000+0 0  9990
2 43056  55.4139 245.7553 0002629 331.4944  28.5606  1.70474096 37987
GSAT0217 (PRN E27)      
1 43057U 17079C   24016.72121848  .00000045  00000+0  00000+0 0  9996
2 43057  55.4125 245.7966 0003000 344.3446  15.7176  1.70473933 37940
GSAT0218 (PRN E31)      
1 43058U 17079D   24018.11441091  .00000047  00000+0  00000+0 0  9999
2 43058  55.4120 245.7556 0002811 312.5573  47.4883  1.70474050 37991
GSAT0221 (PRN E15)      
1 43564U 18060A   24018.01397088 -.00000082  00000+0  00000+0 0  9997
2 43564  57.3002   5.5395 0005936 286.9540  72.9837  1.70475519 34142
GSAT0222 (PRN E33)      
1 43565U 18060B   24018.23224874 -.00000083  00000+0  00000+0 0  9995
2 43565  57.3033   5.5350 0004888 264.5344  95.4125  1.70475285 34192
GSAT0219 (PRN E36)      
1 43566U 18060C   24017.28120896 -.00000080  00000+0  00000+0 0  9996
2 43566  57.3022   5.5627 0005219 292.8773  67.0704  1.70475534 34158
GSAT0220 (PRN E13)      
1 43567U 18060D   24018.08831026 -.00000083  00000+0  00000+0 0  9993
2 43567  57.3021   5.5406 0005445 289.3524  70.5914  1.70475348 34154
GSAT0223 (PRN E34)      
1 49809U 21116A   24018.23825986 -.00000083  00000+0  00000+0 0  9999
2 49809  57.2935   5.4317 0003168 253.7845 288.5460  1.70475483 13168
GSAT0224 (PRN E10)      
1 49810U 21116B   24018.63380844 -.00000084  00000+0  00000+0 0  9995
2 49810  57.2942   5.4194 0002631 261.5330 276.0471  1.70475533 13194
